NORAD_CAT_ID,OBJECT_NAME,OBJECT_TYPE,EPOCH,MEAN_MOTION,ECCENTRICITY,INCLINATION,RA_OF_ASC_NODE,ARG_OF_PERICENTER,MEAN_ANOMALY,BSTAR,MEAN_MOTION_DOT,MEAN_MOTION_DDOT,TLE_LINE0,TLE_LINE1,TLE_LINE2,SEMIMAJOR_AXIS,PERIOD,APOGEE,PERIGEE,DECAYED
51811.0,STARLINK-3569,PAYLOAD,2024-03-12 04:18:49,15.08841653,0.0001532,53.2194,5.0404,99.8509,260.2657,1.917e-05,1.7e-07,0.0,0 STARLINK-3569,1 51811U 22017AV  24072.17973620  .00000017  00000-0  19170-4 0  9998,2 51811  53.2194   5.0404 0001532  99.8509 260.2657 15.08841653114236,6917.875,95.437,540.8,538.681,0.0
51811.0,STARLINK-3569,PAYLOAD,2024-03-13 12:06:32,15.08837025,0.0001554,53.2188,359.0907,87.0782,273.0388,8.0997e-05,1.001e-05,0.0,0 STARLINK-3569,1 51811U 22017AV  24073.50454413  .00001001  00000-0  80997-4 0  9999,2 51811  53.2188 359.0907 0001554  87.0782 273.0388 15.08837025114438,6917.889,95.438,540.83,538.679,0.0
51811.0,STARLINK-3569,PAYLOAD,2024-03-14 04:00:23,15.08850019,0.0001475,53.2185,356.1145,91.0504,269.0657,0.00030102,4.507e-05,0.0,0 STARLINK-3569,1 51811U 22017AV  24074.16693873  .00004507  00000-0  30102-3 0  9993,2 51811  53.2185 356.1145 0001475  91.0504 269.0657 15.08850019114539,6917.85,95.437,540.735,538.694,0.0
51811.0,STARLINK-3569,PAYLOAD,2024-03-14 05:35:46,15.08854345,0.0001462,53.2184,355.8194,92.1942,267.9218,0.00039126,5.947e-05,0.0,0 STARLINK-3569,1 51811U 22017AV  24074.23317729  .00005947  00000-0  39126-3 0  9998,2 51811  53.2184 355.8194 0001462  92.1942 267.9218 15.08854345114448,6917.837,95.437,540.713,538.69,0.0
51811.0,STARLINK-3569,PAYLOAD,2024-03-14 18:18:52,15.08834033,0.0001362,53.218,353.4408,96.3079,263.8069,-1.2854e-05,-4.92e-06,0.0,0 STARLINK-3569,1 51811U 22017AV  24074.76310650 -.00000492  00000-0 -12854-4 0  9994,2 51811  53.2180 353.4408 0001362  96.3079 263.8069 15.08834033114623,6917.899,95.438,540.706,538.821,0.0
51811.0,STARLINK-3569,PAYLOAD,2024-03-15 03:51:10,15.08844341,0.0001704,53.2183,351.6581,98.6656,261.453,0.0001773,2.535e-05,0.0,0 STARLINK-3569,1 51811U 22017AV  24075.16054394  .00002535  00000-0  17730-3 0  9994,2 51811  53.2183 351.6581 0001704  98.6656 261.4530 15.08844341114680,6917.867,95.437,540.911,538.553,0.0
51811.0,STARLINK-3569,PAYLOAD,2024-03-15 22:55:48,15.0884653,0.0001697,53.2172,348.0902,88.3986,271.7201,0.0002287,3.354e-05,0.0,0 STARLINK-3569,1 51811U 22017AV  24075.95542394  .00003354  00000-0  22870-3 0  9994,2 51811  53.2172 348.0902 0001697  88.3986 271.7201 15.08846530114702,6917.86,95.437,540.899,538.551,0.0
51811.0,STARLINK-3569,PAYLOAD,2024-03-16 03:41:57,15.0885094,0.0001525,53.2172,347.1967,100.8824,259.234,0.00024414,3.601e-05,0.0,0 STARLINK-3569,1 51811U 22017AV  24076.15414037  .00003601  00000-0  24414-3 0  9990,2 51811  53.2172 347.1967 0001525 100.8824 259.2340 15.08850940114732,6917.847,95.437,540.767,538.657,0.0
51811.0,STARLINK-3569,PAYLOAD,2024-03-16 22:46:35,15.08836672,0.0001666,53.218,343.626,115.7614,244.355,8.8062e-06,-1.48e-06,0.0,0 STARLINK-3569,1 51811U 22017AV  24076.94902667 -.00000148  00000-0  88062-5 0  9993,2 51811  53.2180 343.6260 0001666 115.7614 244.3550 15.08836672114853,6917.891,95.438,540.908,538.603,0.0
51811.0,STARLINK-3569,PAYLOAD,2024-03-17 03:32:45,15.08831567,0.0001524,53.2182,342.7315,101.2627,258.8537,5.036e-05,5.13e-06,0.0,0 STARLINK-3569,1 51811U 22017AV  24077.14775207  .00000513  00000-0  50360-4 0  9998,2 51811  53.2182 342.7315 0001524 101.2627 258.8537 15.08831567114980,6917.906,95.438,540.825,538.717,0.0
51811.0,STARLINK-3569,PAYLOAD,2024-03-17 21:01:59,15.08839355,0.0002145,53.2182,339.4623,134.546,225.5708,0.00027683,4.12e-05,0.0,0 STARLINK-3569,1 51811U 22017AV  24077.87638540  .00004120  00000-0  27683-3 0  9995,2 51811  53.2182 339.4623 0002145 134.5460 225.5708 15.08839355115096,6917.882,95.438,541.231,538.263,0.0
51811.0,STARLINK-3569,PAYLOAD,2024-03-17 22:37:22,15.08840976,0.0002035,53.2182,339.1651,130.6099,229.507,0.00031147,4.673e-05,0.0,0 STARLINK-3569,1 51811U 22017AV  24077.94262506  .00004673  00000-0  31147-3 0  9991,2 51811  53.2182 339.1651 0002035 130.6099 229.5070 15.08840976115005,6917.877,95.437,541.15,538.335,0.0
51811.0,STARLINK-3569,PAYLOAD,2024-03-18 03:23:31,15.08850794,0.0001493,53.2181,338.2746,106.396,253.7196,0.00014864,2.079e-05,0.0,0 STARLINK-3569,1 51811U 22017AV  24078.14134112  .00002079  00000-0  14864-3 0  9990,2 51811  53.2181 338.2746 0001493 106.3960 253.7196 15.08850794115033,6917.847,95.437,540.745,538.68,0.0
51811.0,STARLINK-3569,PAYLOAD,2024-03-18 20:52:46,15.08840831,0.0001383,53.2172,335.0019,103.2531,256.8615,0.00012552,1.71e-05,0.0,0 STARLINK-3569,1 51811U 22017AV  24078.86998683  .00001710  00000-0  12552-3 0  9993,2 51811  53.2172 335.0019 0001383 103.2531 256.8615 15.08840831115243,6917.878,95.438,540.7,538.786,0.0
51811.0,STARLINK-3569,PAYLOAD,2024-03-18 22:28:09,15.0884201,0.0001407,53.2177,334.7045,100.0574,260.0577,0.00013932,1.93e-05,0.0,0 STARLINK-3569,1 51811U 22017AV  24078.93622638  .00001930  00000-0  13932-3 0  9992,2 51811  53.2177 334.7045 0001407 100.0574 260.0577 15.08842010115157,6917.874,95.437,540.713,538.766,0.0
51811.0,STARLINK-3569,PAYLOAD,2024-03-19 03:14:19,15.08844284,0.0001578,53.2179,333.8115,109.5477,250.5685,0.00019539,2.823e-05,0.0,0 STARLINK-3569,1 51811U 22017AV  24079.13494562  .00002823  00000-0  19539-3 0  9999,2 51811  53.2179 333.8115 0001578 109.5477 250.5685 15.08844284115184,6917.867,95.437,540.824,538.641,0.0
51811.0,STARLINK-3569,PAYLOAD,2024-03-19 22:18:56,15.08850151,0.00015,53.2181,330.2428,103.8494,256.2665,0.00018696,2.69e-05,0.0,0 STARLINK-3569,1 51811U 22017AV  24079.92981963  .00002690  00000-0  18696-3 0  9997,2 51811  53.2181 330.2428 0001500 103.8494 256.2665 15.08850151115402,6917.849,95.437,540.752,538.677,0.0
51811.0,STARLINK-3569,PAYLOAD,2024-03-20 01:29:42,15.08848564,0.000158,53.2178,329.6479,99.4167,260.7004,0.00054031,8.323e-05,0.0,0 STARLINK-3569,1 51811U 22017AV  24080.06230165  .00008323  00000-0  54031-3 0  9997,2 51811  53.2178 329.6479 0001580  99.4167 260.7004 15.08848564115324,6917.854,95.437,540.812,538.626,0.0
51811.0,STARLINK-3569,PAYLOAD,2024-03-20 20:34:20,15.08833902,0.0001235,53.2179,326.0812,102.8852,257.2278,-6.6298e-05,-1.343e-05,0.0,0 STARLINK-3569,1 51811U 22017AV  24080.85718721 -.00001343  00000-0 -66298-4 0  9999,2 51811  53.2179 326.0812 0001235 102.8852 257.2278 15.08833902115542,6917.899,95.438,540.618,538.91,0.0
51811.0,STARLINK-3569,PAYLOAD,2024-03-20 22:09:44,15.08833975,0.0001312,53.2177,325.7839,98.6162,261.4978,-5.417e-05,-1.15e-05,0.0,0 STARLINK-3569,1 51811U 22017AV  24080.92342785 -.00001150  00000-0 -54170-4 0  9992,2 51811  53.2177 325.7839 0001312  98.6162 261.4978 15.08833975115451,6917.899,95.438,540.671,538.856,0.0
51811.0,STARLINK-3569,PAYLOAD,2024-03-21 09:17:26,15.08835901,0.0001208,53.2175,323.7028,88.813,271.3,5.8875e-05,6.49e-06,0.0,0 STARLINK-3569,1 51811U 22017AV  24081.38710991  .00000649  00000-0  58875-4 0  9997,2 51811  53.2175 323.7028 0001208  88.8130 271.3000 15.08835901115522,6917.893,95.438,540.594,538.922,0.0
51811.0,STARLINK-3569,PAYLOAD,2024-03-21 20:25:08,15.08847929,0.0001037,53.2163,321.6247,80.2451,279.8658,0.00028789,4.298e-05,0.0,0 STARLINK-3569,1 51811U 22017AV  24081.85078705  .00004298  00000-0  28789-3 0  9993,2 51811  53.2163 321.6247 0001037  80.2451 279.8658 15.08847929115694,6917.856,95.437,540.439,539.004,0.0
51811.0,STARLINK-3569,PAYLOAD,2024-03-21 22:00:31,15.08850082,0.0001116,53.2161,321.3278,80.6945,279.4174,0.00049724,7.637e-05,0.0,0 STARLINK-3569,1 51811U 22017AV  24081.91702780  .00007637  00000-0  49724-3 0  9999,2 51811  53.2161 321.3278 0001116  80.6945 279.4174 15.08850082115607,6917.85,95.437,540.487,538.943,0.0
51811.0,STARLINK-3569,PAYLOAD,2024-03-22 01:11:17,15.08865617,0.0001245,53.2173,320.7292,82.3679,277.7455,0.001113,0.00017482,0.0,0 STARLINK-3569,1 51811U 22017AV  24082.04950512  .00017482  00000-0  11130-2 0  9990,2 51811  53.2173 320.7292 0001245  82.3679 277.7455 15.08865617115721,6917.802,95.436,540.528,538.806,0.0
51811.0,STARLINK-3569,PAYLOAD,2024-03-22 20:15:55,15.08854583,0.0001249,53.2169,317.1656,68.4823,291.6302,0.00061573,9.529e-05,0.0,0 STARLINK-3569,1 51811U 22017AV  24082.84438725  .00009529  00000-0  61573-3 0  9995,2 51811  53.2169 317.1656 0001249  68.4823 291.6302 15.08854583115849,6917.836,95.437,540.565,538.837,0.0
51811.0,STARLINK-3569,PAYLOAD,2024-03-22 21:51:18,15.0885282,0.0001178,53.2168,316.8686,76.3978,283.7146,0.0010817,0.00016975,0.0,0 STARLINK-3569,1 51811U 22017AV  24082.91062729  .00016975  00000-0  10817-2 0  9997,2 51811  53.2168 316.8686 0001178  76.3978 283.7146 15.08852820115757,6917.841,95.437,540.521,538.891,0.0
51811.0,STARLINK-3569,PAYLOAD,2024-03-23 21:42:05,15.08843573,0.0001163,53.217,312.4071,70.1728,289.939,0.0016973,0.0002683,0.0,0 STARLINK-3569,1 51811U 22017AV  24083.90423518  .00026830  00000-0  16973-2 0  9994,2 51811  53.2170 312.4071 0001163  70.1728 289.9390 15.08843573116002,6917.869,95.437,540.539,538.93,0.0
51811.0,STARLINK-3569,PAYLOAD,2024-03-24 00:52:52,15.08848676,0.0001386,53.2166,311.8116,76.421,283.6937,0.0015432,0.00024363,0.0,0 STARLINK-3569,1 51811U 22017AV  24084.03671441  .00024363  00000-0  15432-2 0  9997,2 51811  53.2166 311.8116 0001386  76.4210 283.6937 15.08848676115929,6917.854,95.437,540.678,538.76,0.0
51811.0,STARLINK-3569,PAYLOAD,2024-03-24 19:57:29,15.08864969,0.000157,53.2168,308.2386,92.1185,267.9987,0.0013771,0.00021711,0.0,0 STARLINK-3569,1 51811U 22017AV  24084.83159219  .00021711  00000-0  13771-2 0  9997,2 51811  53.2168 308.2386 0001570  92.1185 267.9987 15.08864969116149,6917.804,95.436,540.755,538.583,0.0
51811.0,STARLINK-3569,PAYLOAD,2024-03-24 21:32:52,15.08868237,0.0001584,53.2171,307.9413,92.5409,267.5765,0.0014429,0.00022768,0.0,0 STARLINK-3569,1 51811U 22017AV  24084.89783109  .00022768  00000-0  14429-2 0  9998,2 51811  53.2171 307.9413 0001584  92.5409 267.5765 15.08868237116050,6917.794,95.436,540.755,538.563,0.0
